HULIANWANG DIGUI-153    
1 67529U 26013H   26043.26406470 -.00000125  00000+0  16334-4 0  9994
2 67529  50.0072  89.4374 0001301 322.0954  37.9849 13.79514550  3339
HULIANWANG DIGUI-154    
1 67530U 26013J   26043.33376307  .00000033  00000+0  16974-3 0  9995
2 67530  50.0011  89.1466 0004223 185.3162 174.7688 13.79360636  3346
CZ-12 R/B               
1 67531U 26013K   26044.30903653 -.00000106  00000+0  24917-4 0  9993
2 67531  49.9940  81.6091 0069052 213.8608 145.7882 14.14458025  3534
STARLINK-36587          
1 67532U 26014A   26047.59659998  .00577407  00000+0  27890-2 0  9992
2 67532  97.2833 291.5006 0001949 112.1382 248.0093 15.81061257  5255
STARLINK-36417          
1 67533U 26014B   26047.63540593  .00261910  00000+0  16970-2 0  9994
2 67533  97.2828 291.4466 0000873  81.3259 278.8105 15.75278434  5259
STARLINK-36576          
1 67534U 26014C   26047.58335648  .00114392  00000+0  75932-3 0  9997
2 67534  97.2847 291.4815 0001739  89.9104 179.2678 15.75136080  5297
STARLINK-36574          
1 67535U 26014D   26047.59392992  .00572513  00000+0  27697-2 0  9991
2 67535  97.2830 291.5043 0001715  95.7175 264.4289 15.81039089  5250
STARLINK-36572          
1 67536U 26014E   26047.62164393  .00452224  00000+0  28541-2 0  9993
2 67536  97.2829 291.4654 0001829 139.3957 220.7445 15.75359727  5251
STARLINK-36561          
1 67537U 26014F   26047.62764452  .00283542  00000+0  18296-2 0  9997
2 67537  97.2837 291.4557 0001957 113.1723 246.9748 15.75314247  5250
STARLINK-36397          
1 67538U 26014G   26047.63152612  .00254335  00000+0  16482-2 0  9991
2 67538  97.2832 291.4510 0002001 128.3062 231.8384 15.75295710  5252
STARLINK-36573          
1 67539U 26014H   26046.57703360  .00514482  00000+0  25211-2 0  9998
2 67539  97.2830 290.4370 0002230 167.0199 193.1127 15.80907014  5099
STARLINK-36585          
1 67540U 26014J   26047.62340721  .00258386  00000+0  16742-2 0  9992
2 67540  97.2839 291.4598 0001515  70.3393 289.8035 15.75287558  5257
