CCSDS_OMM_VERS = 2.0
CREATION_DATE  = 
ORIGINATOR     = 

OBJECT_NAME    = HULIANWANG DIGUI-153
OBJECT_ID      = 2026-013H
CENTER_NAME    = EARTH
REF_FRAME      = TEME
TIME_SYSTEM    = UTC
MEAN_ELEMENT_THEORY = SGP/SGP4

EPOCH          = 2026-02-12T06:20:15.190080
MEAN_MOTION    = 13.79514550
ECCENTRICITY   = .0001301
INCLINATION    = 50.0072
RA_OF_ASC_NODE = 89.4374
ARG_OF_PERICENTER = 322.0954
MEAN_ANOMALY   = 37.9849

EPHEMERIS_TYPE = 0
CLASSIFICATION_TYPE = U
NORAD_CAT_ID   = 67529
ELEMENT_SET_NO = 999
REV_AT_EPOCH   = 333
BSTAR          = .16333987E-4
MEAN_MOTION_DOT = -.125E-5
MEAN_MOTION_DDOT = 0

CCSDS_OMM_VERS = 2.0
CREATION_DATE  = 
ORIGINATOR     = 

OBJECT_NAME    = HULIANWANG DIGUI-154
OBJECT_ID      = 2026-013J
CENTER_NAME    = EARTH
REF_FRAME      = TEME
TIME_SYSTEM    = UTC
MEAN_ELEMENT_THEORY = SGP/SGP4

EPOCH          = 2026-02-12T08:00:37.129248
MEAN_MOTION    = 13.79360636
ECCENTRICITY   = .0004223
INCLINATION    = 50.0011
RA_OF_ASC_NODE = 89.1466
ARG_OF_PERICENTER = 185.3162
MEAN_ANOMALY   = 174.7688

EPHEMERIS_TYPE = 0
CLASSIFICATION_TYPE = U
NORAD_CAT_ID   = 67530
ELEMENT_SET_NO = 999
REV_AT_EPOCH   = 334
BSTAR          = .16974E-3
MEAN_MOTION_DOT = .33E-6
MEAN_MOTION_DDOT = 0

CCSDS_OMM_VERS = 2.0
CREATION_DATE  = 
ORIGINATOR     = 

OBJECT_NAME    = CZ-12 R/B
OBJECT_ID      = 2026-013K
CENTER_NAME    = EARTH
REF_FRAME      = TEME
TIME_SYSTEM    = UTC
MEAN_ELEMENT_THEORY = SGP/SGP4

EPOCH          = 2026-02-13T07:25:00.756192
MEAN_MOTION    = 14.14458025
ECCENTRICITY   = .0069052
INCLINATION    = 49.9940
RA_OF_ASC_NODE = 81.6091
ARG_OF_PERICENTER = 213.8608
MEAN_ANOMALY   = 145.7882

EPHEMERIS_TYPE = 0
CLASSIFICATION_TYPE = U
NORAD_CAT_ID   = 67531
ELEMENT_SET_NO = 999
REV_AT_EPOCH   = 353
BSTAR          = .24917E-4
MEAN_MOTION_DOT = -.106E-5
MEAN_MOTION_DDOT = 0

CCSDS_OMM_VERS = 2.0
CREATION_DATE  = 
ORIGINATOR     = 

OBJECT_NAME    = STARLINK-36587
OBJECT_ID      = 2026-014A
CENTER_NAME    = EARTH
REF_FRAME      = TEME
TIME_SYSTEM    = UTC
MEAN_ELEMENT_THEORY = SGP/SGP4

EPOCH          = 2026-02-16T14:19:06.238272
MEAN_MOTION    = 15.81061257
ECCENTRICITY   = .00019499
INCLINATION    = 97.2833
RA_OF_ASC_NODE = 291.5006
ARG_OF_PERICENTER = 112.1382
MEAN_ANOMALY   = 248.0093

EPHEMERIS_TYPE = 0
CLASSIFICATION_TYPE = U
NORAD_CAT_ID   = 67532
ELEMENT_SET_NO = 999
REV_AT_EPOCH   = 525
BSTAR          = .27889849E-2
MEAN_MOTION_DOT = .577407E-2
MEAN_MOTION_DDOT = 0

CCSDS_OMM_VERS = 2.0
CREATION_DATE  = 
ORIGINATOR     = 

OBJECT_NAME    = STARLINK-36417
OBJECT_ID      = 2026-014B
CENTER_NAME    = EARTH
REF_FRAME      = TEME
TIME_SYSTEM    = UTC
MEAN_ELEMENT_THEORY = SGP/SGP4

EPOCH          = 2026-02-16T15:14:59.072352
MEAN_MOTION    = 15.75278434
ECCENTRICITY   = .00008733
INCLINATION    = 97.2828
RA_OF_ASC_NODE = 291.4466
ARG_OF_PERICENTER = 81.3259
MEAN_ANOMALY   = 278.8105

EPHEMERIS_TYPE = 0
CLASSIFICATION_TYPE = U
NORAD_CAT_ID   = 67533
ELEMENT_SET_NO = 999
REV_AT_EPOCH   = 525
BSTAR          = .16970044E-2
MEAN_MOTION_DOT = .26191E-2
MEAN_MOTION_DDOT = 0

CCSDS_OMM_VERS = 2.0
CREATION_DATE  = 
ORIGINATOR     = 

OBJECT_NAME    = STARLINK-36576
OBJECT_ID      = 2026-014C
CENTER_NAME    = EARTH
REF_FRAME      = TEME
TIME_SYSTEM    = UTC
MEAN_ELEMENT_THEORY = SGP/SGP4

EPOCH          = 2026-02-16T14:00:01.999872
MEAN_MOTION    = 15.75136080
ECCENTRICITY   = .00017397
INCLINATION    = 97.2847
RA_OF_ASC_NODE = 291.4815
ARG_OF_PERICENTER = 89.9104
MEAN_ANOMALY   = 179.2678

EPHEMERIS_TYPE = 0
CLASSIFICATION_TYPE = U
NORAD_CAT_ID   = 67534
ELEMENT_SET_NO = 999
REV_AT_EPOCH   = 529
BSTAR          = .75932366E-3
MEAN_MOTION_DOT = .114392E-2
MEAN_MOTION_DDOT = 0

CCSDS_OMM_VERS = 2.0
CREATION_DATE  = 
ORIGINATOR     = 

OBJECT_NAME    = STARLINK-36574
OBJECT_ID      = 2026-014D
CENTER_NAME    = EARTH
REF_FRAME      = TEME
TIME_SYSTEM    = UTC
MEAN_ELEMENT_THEORY = SGP/SGP4

EPOCH          = 2026-02-16T14:15:15.545088
MEAN_MOTION    = 15.81039089
ECCENTRICITY   = .00017158
INCLINATION    = 97.2830
RA_OF_ASC_NODE = 291.5043
ARG_OF_PERICENTER = 95.7175
MEAN_ANOMALY   = 264.4289

EPHEMERIS_TYPE = 0
CLASSIFICATION_TYPE = U
NORAD_CAT_ID   = 67535
ELEMENT_SET_NO = 999
REV_AT_EPOCH   = 525
BSTAR          = .27696705E-2
MEAN_MOTION_DOT = .572513E-2
MEAN_MOTION_DDOT = 0

CCSDS_OMM_VERS = 2.0
CREATION_DATE  = 
ORIGINATOR     = 

OBJECT_NAME    = STARLINK-36572
OBJECT_ID      = 2026-014E
CENTER_NAME    = EARTH
REF_FRAME      = TEME
TIME_SYSTEM    = UTC
MEAN_ELEMENT_THEORY = SGP/SGP4

EPOCH          = 2026-02-16T14:55:10.035552
MEAN_MOTION    = 15.75359727
ECCENTRICITY   = .00018298
INCLINATION    = 97.2829
RA_OF_ASC_NODE = 291.4654
ARG_OF_PERICENTER = 139.3957
MEAN_ANOMALY   = 220.7445

EPHEMERIS_TYPE = 0
CLASSIFICATION_TYPE = U
NORAD_CAT_ID   = 67536
ELEMENT_SET_NO = 999
REV_AT_EPOCH   = 525
BSTAR          = .28541409E-2
MEAN_MOTION_DOT = .452224E-2
MEAN_MOTION_DDOT = 0

CCSDS_OMM_VERS = 2.0
CREATION_DATE  = 
ORIGINATOR     = 

OBJECT_NAME    = STARLINK-36561
OBJECT_ID      = 2026-014F
CENTER_NAME    = EARTH
REF_FRAME      = TEME
TIME_SYSTEM    = UTC
MEAN_ELEMENT_THEORY = SGP/SGP4

EPOCH          = 2026-02-16T15:03:48.486528
MEAN_MOTION    = 15.75314247
ECCENTRICITY   = .00019571
INCLINATION    = 97.2837
RA_OF_ASC_NODE = 291.4557
ARG_OF_PERICENTER = 113.1723
MEAN_ANOMALY   = 246.9748

EPHEMERIS_TYPE = 0
CLASSIFICATION_TYPE = U
NORAD_CAT_ID   = 67537
ELEMENT_SET_NO = 999
REV_AT_EPOCH   = 525
BSTAR          = .18295791E-2
MEAN_MOTION_DOT = .283542E-2
MEAN_MOTION_DDOT = 0

CCSDS_OMM_VERS = 2.0
CREATION_DATE  = 
ORIGINATOR     = 

OBJECT_NAME    = STARLINK-36397
OBJECT_ID      = 2026-014G
CENTER_NAME    = EARTH
REF_FRAME      = TEME
TIME_SYSTEM    = UTC
MEAN_ELEMENT_THEORY = SGP/SGP4

EPOCH          = 2026-02-16T15:09:23.856768
MEAN_MOTION    = 15.75295710
ECCENTRICITY   = .00020017
INCLINATION    = 97.2832
RA_OF_ASC_NODE = 291.4510
ARG_OF_PERICENTER = 128.3062
MEAN_ANOMALY   = 231.8384

EPHEMERIS_TYPE = 0
CLASSIFICATION_TYPE = U
NORAD_CAT_ID   = 67538
ELEMENT_SET_NO = 999
REV_AT_EPOCH   = 525
BSTAR          = .16481952E-2
MEAN_MOTION_DOT = .254335E-2
MEAN_MOTION_DDOT = 0

CCSDS_OMM_VERS = 2.0
CREATION_DATE  = 
ORIGINATOR     = 

OBJECT_NAME    = STARLINK-36573
OBJECT_ID      = 2026-014H
CENTER_NAME    = EARTH
REF_FRAME      = TEME
TIME_SYSTEM    = UTC
MEAN_ELEMENT_THEORY = SGP/SGP4

EPOCH          = 2026-02-15T13:50:55.703040
MEAN_MOTION    = 15.80907014
ECCENTRICITY   = .000223
INCLINATION    = 97.2830
RA_OF_ASC_NODE = 290.4370
ARG_OF_PERICENTER = 167.0199
MEAN_ANOMALY   = 193.1127

EPHEMERIS_TYPE = 0
CLASSIFICATION_TYPE = U
NORAD_CAT_ID   = 67539
ELEMENT_SET_NO = 999
REV_AT_EPOCH   = 509
BSTAR          = .25211E-2
MEAN_MOTION_DOT = .514482E-2
MEAN_MOTION_DDOT = 0

CCSDS_OMM_VERS = 2.0
CREATION_DATE  = 
ORIGINATOR     = 

OBJECT_NAME    = STARLINK-36585
OBJECT_ID      = 2026-014J
CENTER_NAME    = EARTH
REF_FRAME      = TEME
TIME_SYSTEM    = UTC
MEAN_ELEMENT_THEORY = SGP/SGP4

EPOCH          = 2026-02-16T14:57:42.382944
MEAN_MOTION    = 15.75287558
ECCENTRICITY   = .00015154
INCLINATION    = 97.2839
RA_OF_ASC_NODE = 291.4598
ARG_OF_PERICENTER = 70.3393
MEAN_ANOMALY   = 289.8035

EPHEMERIS_TYPE = 0
CLASSIFICATION_TYPE = U
NORAD_CAT_ID   = 67540
ELEMENT_SET_NO = 999
REV_AT_EPOCH   = 525
BSTAR          = .16742372E-2
MEAN_MOTION_DOT = .258386E-2
MEAN_MOTION_DDOT = 0

